{"type":"Feature","id":"616","properties":{"name":"Poland"},"geometry":{"type":"Polygon","coordinates":[[[23.6036,51.5183],[23.6792,51.395],[23.6648,51.3099],[24.0968,50.8725],[23.978,50.7857],[24.0932,50.6173],[24.0896,50.5305],[23.9744,50.4107],[23.7116,50.3777],[23.4092,50.1746],[22.6496,49.5392],[22.7324,49.2944],[22.7072,49.1712],[22.8476,49.0809],[22.808,49.0202],[22.0196,49.2094],[21.89,49.3431],[21.638,49.4125],[21.08,49.4177],[21.0008,49.3396],[20.8676,49.3153],[20.6156,49.3917],[20.3636,49.3847],[20.162,49.317],[20.0576,49.1816],[19.7552,49.2042],[19.7732,49.3726],[19.6292,49.4073],[19.442,49.5982],[19.2512,49.5114],[19.1504,49.4003],[18.9668,49.3969],[18.938,49.4976],[18.8336,49.5114],[18.8084,49.6139],[18.596,49.758],[18.5636,49.8795],[18.3044,49.9142],[18.0272,50.0357],[17.876,49.9715],[17.6276,50.1156],[17.588,50.1572],[17.7356,50.2302],[17.7032,50.3065],[17.4152,50.2545],[17.1524,50.3777],[16.8788,50.4263],[16.9904,50.2371],[16.6376,50.1017],[16.2092,50.4246],[16.418,50.5739],[16.2812,50.6555],[16.0076,50.6121],[15.7304,50.7405],[15.356,50.8117],[15.2588,50.9593],[14.9923,51.0148],[14.9815,50.8864],[14.8087,50.8586],[15.0176,51.2527],[14.9059,51.4627],[14.7259,51.5235],[14.7403,51.6276],[14.5999,51.8325],[14.7511,52.0825],[14.6791,52.2509],[14.5531,52.3602],[14.6179,52.5286],[14.1283,52.8776],[14.3695,53.105],[14.4127,53.2161],[14.2579,53.7299],[14.5819,53.6397],[14.5567,53.8237],[14.2147,53.8706],[14.1967,53.9192],[16.1876,54.2907],[16.5584,54.5545],[16.886,54.5962],[17.2604,54.7299],[18.0848,54.8358],[18.3224,54.8375],[18.758,54.6847],[18.8012,54.6327],[18.4376,54.7455],[18.668,54.4313],[18.9776,54.3497],[19.406,54.3861],[19.604,54.4591],[22.1672,54.3601],[22.8944,54.3914],[23.4524,54.1431],[23.6,53.5997],[23.888,53.0269],[23.9024,52.704],[23.4092,52.5165],[23.1752,52.2873],[23.654,52.0408],[23.6252,51.8099],[23.546,51.711],[23.6036,51.5183]]]}}
